{
  "type": "FeatureCollection",
  "features": [
    {
      "type": "Feature",
      "properties": {
        "norad_id": 31150,
        "name": "FENGYUN 1C DEB",
        "group": "fengyun-1c-debris",
        "lat": 17.479113278564267,
        "lon": -168.68420769524784,
        "alt_km": 841.6562620525156,
        "timestamp": "2025-12-26T07:29:18.736285+00:00",
        "meta_object_name": "FENGYUN 1C DEB",
        "meta_object_id": "1999-025BHC",
        "meta_epoch": "2025-12-25T00:15:03.050208",
        "meta_mean_motion": 14.12740244,
        "meta_eccentricity": 0.00157513,
        "meta_inclination": 98.6855,
        "meta_ra_of_asc_node": 7.2947,
        "meta_arg_of_pericenter": 125.9436,
        "meta_mean_anomaly": 260.2376,
        "meta_ephemeris_type": 0,
        "meta_classification_type": "U",
        "meta_norad_cat_id": 31150,
        "meta_element_set_no": 999,
        "meta_rev_at_epoch": 96470,
        "meta_bstar": 0.00014343287,
        "meta_mean_motion_dot": 2.24e-06,
        "meta_mean_motion_ddot": 0,
        "tle_line1": "1 31150U 99025BHC 25359.01045197  .00000224  00000+0  14343-3 0  9991",
        "tle_line2": "2 31150  98.6855   7.2947 0015751 125.9436 260.2376 14.12740244964702"
      },
      "geometry": {
        "type": "Point",
        "coordinates": [
          -168.68420769524784,
          17.479113278564267
        ]
      }
    },
    {
      "type": "Feature",
      "properties": {
        "norad_id": 31151,
        "name": "FENGYUN 1C DEB",
        "group": "fengyun-1c-debris",
        "lat": -62.715565879091535,
        "lon": 168.13151258924438,
        "alt_km": 820.5898731508487,
        "timestamp": "2025-12-26T07:29:18.736295+00:00",
        "meta_object_name": "FENGYUN 1C DEB",
        "meta_object_id": "1999-025BHD",
        "meta_epoch": "2025-12-25T23:36:26.476992",
        "meta_mean_motion": 14.2594835,
        "meta_eccentricity": 0.0056201,
        "meta_inclination": 99.1376,
        "meta_ra_of_asc_node": 5.9717,
        "meta_arg_of_pericenter": 347.0338,
        "meta_mean_anomaly": 12.9392,
        "meta_ephemeris_type": 0,
        "meta_classification_type": "U",
        "meta_norad_cat_id": 31151,
        "meta_element_set_no": 999,
        "meta_rev_at_epoch": 96163,
        "meta_bstar": 0.002333513,
        "meta_mean_motion_dot": 5.612e-05,
        "meta_mean_motion_ddot": 0,
        "tle_line1": "1 31151U 99025BHD 25359.98363978  .00005612  00000+0  23335-2 0  9994",
        "tle_line2": "2 31151  99.1376   5.9717 0056201 347.0338  12.9392 14.25948350961631"
      },
      "geometry": {
        "type": "Point",
        "coordinates": [
          168.13151258924438,
          -62.715565879091535
        ]
      }
    },
    {
      "type": "Feature",
      "properties": {
        "norad_id": 31152,
        "name": "FENGYUN 1C DEB",
        "group": "fengyun-1c-debris",
        "lat": 79.8908508316111,
        "lon": -137.28193225804907,
        "alt_km": 783.9015994610572,
        "timestamp": "2025-12-26T07:29:18.736305+00:00",
        "meta_object_name": "FENGYUN 1C DEB",
        "meta_object_id": "1999-025BHE",
        "meta_epoch": "2025-12-24T10:36:14.536224",
        "meta_mean_motion": 14.35857873,
        "meta_eccentricity": 0.01294685,
        "meta_inclination": 98.4153,
        "meta_ra_of_asc_node": 344.7627,
        "meta_arg_of_pericenter": 358.5548,
        "meta_mean_anomaly": 154.0061,
        "meta_ephemeris_type": 0,
        "meta_classification_type": "U",
        "meta_norad_cat_id": 31152,
        "meta_element_set_no": 999,
        "meta_rev_at_epoch": 98216,
        "meta_bstar": 0.00011929315,
        "meta_mean_motion_dot": 3.34e-06,
        "meta_mean_motion_ddot": 0,
        "tle_line1": "1 31152U 99025BHE 25358.44183491  .00000334  00000+0  11929-3 0  9998",
        "tle_line2": "2 31152  98.4153 344.7627 0129468 358.5548 154.0061 14.35857873982169"
      },
      "geometry": {
        "type": "Point",
        "coordinates": [
          -137.28193225804907,
          79.8908508316111
        ]
      }
    },
    {
      "type": "Feature",
      "properties": {
        "norad_id": 31155,
        "name": "FENGYUN 1C DEB",
        "group": "fengyun-1c-debris",
        "lat": 74.59549448987217,
        "lon": -75.43369204643686,
        "alt_km": 905.4523824371645,
        "timestamp": "2025-12-26T07:29:18.736315+00:00",
        "meta_object_name": "FENGYUN 1C DEB",
        "meta_object_id": "1999-025BHH",
        "meta_epoch": "2025-12-25T15:39:32.131008",
        "meta_mean_motion": 14.08376104,
        "meta_eccentricity": 0.00887598,
        "meta_inclination": 99.0404,
        "meta_ra_of_asc_node": 68.608,
        "meta_arg_of_pericenter": 326.1496,
        "meta_mean_anomaly": 33.4026,
        "meta_ephemeris_type": 0,
        "meta_classification_type": "U",
        "meta_norad_cat_id": 31155,
        "meta_element_set_no": 999,
        "meta_rev_at_epoch": 95769,
        "meta_bstar": 0.0011515771,
        "meta_mean_motion_dot": 1.999e-05,
        "meta_mean_motion_ddot": 0,
        "tle_line1": "1 31155U 99025BHH 25359.65245522  .00001999  00000+0  11516-2 0  9998",
        "tle_line2": "2 31155  99.0404  68.6080 0088759 326.1496  33.4026 14.08376104957697"
      },
      "geometry": {
        "type": "Point",
        "coordinates": [
          -75.43369204643686,
          74.59549448987217
        ]
      }
    },
    {
      "type": "Feature",
      "properties": {
        "norad_id": 31157,
        "name": "FENGYUN 1C DEB",
        "group": "fengyun-1c-debris",
        "lat": 16.24331214893668,
        "lon": -19.17518204975042,
        "alt_km": 816.0873038131067,
        "timestamp": "2025-12-26T07:29:18.736325+00:00",
        "meta_object_name": "FENGYUN 1C DEB",
        "meta_object_id": "1999-025BHK",
        "meta_epoch": "2025-12-25T04:24:12.072384",
        "meta_mean_motion": 14.22581375,
        "meta_eccentricity": 0.0099325,
        "meta_inclination": 98.4826,
        "meta_ra_of_asc_node": 342.2302,
        "meta_arg_of_pericenter": 290.1653,
        "meta_mean_anomaly": 68.8863,
        "meta_ephemeris_type": 0,
        "meta_classification_type": "U",
        "meta_norad_cat_id": 31157,
        "meta_element_set_no": 999,
        "meta_rev_at_epoch": 97160,
        "meta_bstar": 0.00030637,
        "meta_mean_motion_dot": 6.77e-06,
        "meta_mean_motion_ddot": 0,
        "tle_line1": "1 31157U 99025BHK 25359.18347306  .00000677  00000+0  30637-3 0  9999",
        "tle_line2": "2 31157  98.4826 342.2302 0099325 290.1653  68.8863 14.22581375971606"
      },
      "geometry": {
        "type": "Point",
        "coordinates": [
          -19.17518204975042,
          16.24331214893668
        ]
      }
    },
    {
      "type": "Feature",
      "properties": {
        "norad_id": 31158,
        "name": "FENGYUN 1C DEB",
        "group": "fengyun-1c-debris",
        "lat": -11.188996667961566,
        "lon": 80.90603408321338,
        "alt_km": 751.5106660035199,
        "timestamp": "2025-12-26T07:29:18.736336+00:00",
        "meta_object_name": "FENGYUN 1C DEB",
        "meta_object_id": "1999-025BHL",
        "meta_epoch": "2025-12-21T11:56:21.493536",
        "meta_mean_motion": 14.33299733,
        "meta_eccentricity": 0.00468097,
        "meta_inclination": 98.7797,
        "meta_ra_of_asc_node": 74.2735,
        "meta_arg_of_pericenter": 8.2217,
        "meta_mean_anomaly": 351.9724,
        "meta_ephemeris_type": 0,
        "meta_classification_type": "U",
        "meta_norad_cat_id": 31158,
        "meta_element_set_no": 999,
        "meta_rev_at_epoch": 64605,
        "meta_bstar": 0.0012542591,
        "meta_mean_motion_dot": 3.451e-05,
        "meta_mean_motion_ddot": 0,
        "tle_line1": "1 31158U 99025BHL 25355.49747099  .00003451  00000+0  12543-2 0  9991",
        "tle_line2": "2 31158  98.7797  74.2735 0046809   8.2217 351.9724 14.33299733646058"
      },
      "geometry": {
        "type": "Point",
        "coordinates": [
          80.90603408321338,
          -11.188996667961566
        ]
      }
    },
    {
      "type": "Feature",
      "properties": {
        "norad_id": 31159,
        "name": "FENGYUN 1C DEB",
        "group": "fengyun-1c-debris",
        "lat": -76.6017077567859,
        "lon": 105.66008097900796,
        "alt_km": 423.19182758759507,
        "timestamp": "2025-12-26T07:29:18.736346+00:00",
        "meta_object_name": "FENGYUN 1C DEB",
        "meta_object_id": "1999-025BHM",
        "meta_epoch": "2025-12-25T03:51:07.680384",
        "meta_mean_motion": 15.40087027,
        "meta_eccentricity": 0.0105705,
        "meta_inclination": 97.8001,
        "meta_ra_of_asc_node": 319.5662,
        "meta_arg_of_pericenter": 329.563,
        "meta_mean_anomaly": 29.9504,
        "meta_ephemeris_type": 0,
        "meta_classification_type": "U",
        "meta_norad_cat_id": 31159,
        "meta_element_set_no": 999,
        "meta_rev_at_epoch": 99744,
        "meta_bstar": 0.0016351,
        "meta_mean_motion_dot": 0.00080319,
        "meta_mean_motion_ddot": 0,
        "tle_line1": "1 31159U 99025BHM 25359.16050556  .00080319  00000+0  16351-2 0  9994",
        "tle_line2": "2 31159  97.8001 319.5662 0105705 329.5630  29.9504 15.40087027997440"
      },
      "geometry": {
        "type": "Point",
        "coordinates": [
          105.66008097900796,
          -76.6017077567859
        ]
      }
    }
  ]
}